{"type": "FeatureCollection", "features": [ {"type": "Feature", "properties": {"norad_id": 51444, "name": "CSG-2", "group": "resource", "lat": -76.54981935409347, "lon": -152.68790967278233, "alt_km": 630.7607976966156, "timestamp": "2025-12-16T15:45:50.672334+00:00", "meta": {"OBJECT_NAME": "CSG-2", "OBJECT_ID": "2022-008A", "EPOCH": "2025-12-14T21:59:39.018912", "MEAN_MOTION": 14.82165966, "ECCENTRICITY": 0.0001469, "INCLINATION": 97.8808, "RA_OF_ASC_NODE": 170.2065, "ARG_OF_PERICENTER": 82.0603, "MEAN_ANOMALY": 278.0777, "EPHEMERIS_TYPE": 0, "CLASSIFICATION_TYPE": "U", "NORAD_CAT_ID": 51444, "ELEMENT_SET_NO": 999, "REV_AT_EPOCH": 20929, "BSTAR": 5.0769599e-05, "MEAN_MOTION_DOT": 3.52e-06, "MEAN_MOTION_DDOT": 0}, "tle": {"line1": "1 51444U 22008A   25348.91642383  .00000352  00000+0  50770-4 0  9990", "line2": "2 51444  97.8808 170.2065 0001469  82.0603 278.0777 14.82165966209298"}}, "geometry": {"type": "Point", "coordinates": [-152.68790967278233, -76.54981935409347]}}, {"type": "Feature", "properties": {"norad_id": 52912, "name": "GAOFEN-12 03", "group": "resource", "lat": 18.108835768956638, "lon": 60.50070312146322, "alt_km": 631.350302262932, "timestamp": "2025-12-16T15:45:50.672351+00:00", "meta": {"OBJECT_NAME": "GAOFEN-12 03", "OBJECT_ID": "2022-069A", "EPOCH": "2025-12-15T22:48:21.509280", "MEAN_MOTION": 14.79618837, "ECCENTRICITY": 0.00021615, "INCLINATION": 97.8485, "RA_OF_ASC_NODE": 237.2252, "ARG_OF_PERICENTER": 57.2465, "MEAN_ANOMALY": 302.8955, "EPHEMERIS_TYPE": 0, "CLASSIFICATION_TYPE": "U", "NORAD_CAT_ID": 52912, "ELEMENT_SET_NO": 999, "REV_AT_EPOCH": 18751, "BSTAR": 0.00015709126, "MEAN_MOTION_DOT": 1.127e-05, "MEAN_MOTION_DDOT": 0}, "tle": {"line1": "1 52912U 22069A   25349.95024895  .00001127  00000+0  15709-3 0  9998", "line2": "2 52912  97.8485 237.2252 0002161  57.2465 302.8955 14.79618837187512"}}, "geometry": {"type": "Point", "coordinates": [60.50070312146322, 18.108835768956638]}}, {"type": "Feature", "properties": {"norad_id": 54754, "name": "SWOT", "group": "resource", "lat": 74.08201606428256, "lon": 51.28408262857438, "alt_km": 885.7116260948151, "timestamp": "2025-12-16T15:45:50.672367+00:00", "meta": {"OBJECT_NAME": "SWOT", "OBJECT_ID": "2022-173A", "EPOCH": "2025-12-15T22:08:20.410080", "MEAN_MOTION": 14.00167371, "ECCENTRICITY": 3.589e-05, "INCLINATION": 77.6107, "RA_OF_ASC_NODE": 282.6933, "ARG_OF_PERICENTER": 104.4183, "MEAN_ANOMALY": 255.7008, "EPHEMERIS_TYPE": 0, "CLASSIFICATION_TYPE": "U", "NORAD_CAT_ID": 54754, "ELEMENT_SET_NO": 999, "REV_AT_EPOCH": 15350, "BSTAR": 6.2884058e-05, "MEAN_MOTION_DOT": 9e-07, "MEAN_MOTION_DDOT": 0}, "tle": {"line1": "1 54754U 22173A   25349.92245845  .00000090  00000+0  62884-4 0  9992", "line2": "2 54754  77.6107 282.6933 0000358 104.4183 255.7008 14.00167371153506"}}, "geometry": {"type": "Point", "coordinates": [51.28408262857438, 74.08201606428256]}}, {"type": "Feature", "properties": {"norad_id": 57654, "name": "GAOFEN-12 04", "group": "resource", "lat": -27.359045007526447, "lon": -89.51891504899983, "alt_km": 636.1851591884924, "timestamp": "2025-12-16T15:45:50.672383+00:00", "meta": {"OBJECT_NAME": "GAOFEN-12 04", "OBJECT_ID": "2023-123A", "EPOCH": "2025-12-15T23:39:34.099776", "MEAN_MOTION": 14.79709536, "ECCENTRICITY": 0.00012714, "INCLINATION": 97.9123, "RA_OF_ASC_NODE": 265.6936, "ARG_OF_PERICENTER": 74.4983, "MEAN_ANOMALY": 285.6369, "EPHEMERIS_TYPE": 0, "CLASSIFICATION_TYPE": "U", "NORAD_CAT_ID": 57654, "ELEMENT_SET_NO": 999, "REV_AT_EPOCH": 12553, "BSTAR": 0.00017620719, "MEAN_MOTION_DOT": 1.272e-05, "MEAN_MOTION_DDOT": 0}, "tle": {"line1": "1 57654U 23123A   25349.98581134  .00001272  00000+0  17621-3 0  9991", "line2": "2 57654  97.9123 265.6936 0001271  74.4983 285.6369 14.79709536125539"}}, "geometry": {"type": "Point", "coordinates": [-89.51891504899983, -27.359045007526447]}}, {"type": "Feature", "properties": {"norad_id": 59065, "name": "PARS 1", "group": "resource", "lat": 27.15979870435629, "lon": 145.5294707041566, "alt_km": 442.3480419709713, "timestamp": "2025-12-16T15:45:50.672399+00:00", "meta": {"OBJECT_NAME": "PARS 1", "OBJECT_ID": "2024-039Q", "EPOCH": "2025-12-15T23:31:18.628608", "MEAN_MOTION": 15.41050537, "ECCENTRICITY": 0.0012376, "INCLINATION": 97.4631, "RA_OF_ASC_NODE": 320.9819, "ARG_OF_PERICENTER": 62.5003, "MEAN_ANOMALY": 297.75, "EPHEMERIS_TYPE": 0, "CLASSIFICATION_TYPE": "U", "NORAD_CAT_ID": 59065, "ELEMENT_SET_NO": 999, "REV_AT_EPOCH": 10038, "BSTAR": 0.00022688796, "MEAN_MOTION_DOT": 9.308e-05, "MEAN_MOTION_DDOT": 0}, "tle": {"line1": "1 59065U 24039Q   25349.98007672  .00009308  00000+0  22689-3 0  9994", "line2": "2 59065  97.4631 320.9819 0012376  62.5003 297.7500 15.41050537100387"}}, "geometry": {"type": "Point", "coordinates": [145.5294707041566, 27.15979870435629]}}, {"type": "Feature", "properties": {"norad_id": 59371, "name": "RESURS-P 4", "group": "resource", "lat": 11.034386555865051, "lon": 118.32993347660236, "alt_km": 471.44657191013266, "timestamp": "2025-12-16T15:45:50.672417+00:00", "meta": {"OBJECT_NAME": "RESURS-P 4", "OBJECT_ID": "2024-061A", "EPOCH": "2025-12-15T23:21:18.575424", "MEAN_MOTION": 15.32112121, "ECCENTRICITY": 0.00012714, "INCLINATION": 97.2544, "RA_OF_ASC_NODE": 296.2368, "ARG_OF_PERICENTER": 54.8101, "MEAN_ANOMALY": 305.326, "EPHEMERIS_TYPE": 0, "CLASSIFICATION_TYPE": "U", "NORAD_CAT_ID": 59371, "ELEMENT_SET_NO": 999, "REV_AT_EPOCH": 9570, "BSTAR": 0.00011189904, "MEAN_MOTION_DOT": 3.393e-05, "MEAN_MOTION_DDOT": 0}, "tle": {"line1": "1 59371U 24061A   25349.97313166  .00003393  00000+0  11190-3 0  9999", "line2": "2 59371  97.2544 296.2368 0001271  54.8101 305.3260 15.32112121 95703"}}, "geometry": {"type": "Point", "coordinates": [118.32993347660236, 11.034386555865051]}}, {"type": "Feature", "properties": {"norad_id": 59625, "name": "LEGION 1", "group": "resource", "lat": 5.666262317009057, "lon": -113.98697562858706, "alt_km": 520.2637335047893, "timestamp": "2025-12-16T15:45:50.672431+00:00", "meta": {"OBJECT_NAME": "LEGION 1", "OBJECT_ID": "2024-081A", "EPOCH": "2025-12-15T21:34:43.704480", "MEAN_MOTION": 15.16513038, "ECCENTRICITY": 0.00038031, "INCLINATION": 97.5215, "RA_OF_ASC_NODE": 64.5106, "ARG_OF_PERICENTER": 303.8835, "MEAN_ANOMALY": 56.2036, "EPHEMERIS_TYPE": 0, "CLASSIFICATION_TYPE": "U", "NORAD_CAT_ID": 59625, "ELEMENT_SET_NO": 999, "REV_AT_EPOCH": 8975, "BSTAR": 0.00021189928, "MEAN_MOTION_DOT": 4.062e-05, "MEAN_MOTION_DDOT": 0}, "tle": {"line1": "1 59625U 24081A   25349.89911695  .00004062  00000+0  21190-3 0  9990", "line2": "2 59625  97.5215  64.5106 0003803 303.8835  56.2036 15.16513038 89758"}}, "geometry": {"type": "Point", "coordinates": [-113.98697562858706, 5.666262317009057]}}, {"type": "Feature", "properties": {"norad_id": 59626, "name": "LEGION 2", "group": "resource", "lat": -5.866265035103683, "lon": 66.12717397956101, "alt_km": 519.2490614490889, "timestamp": "2025-12-16T15:45:50.672442+00:00", "meta": {"OBJECT_NAME": "LEGION 2", "OBJECT_ID": "2024-081B", "EPOCH": "2025-12-15T22:22:15.112704", "MEAN_MOTION": 15.16526622, "ECCENTRICITY": 0.00056218, "INCLINATION": 97.5218, "RA_OF_ASC_NODE": 64.6307, "ARG_OF_PERICENTER": 280.0572, "MEAN_ANOMALY": 80.0027, "EPHEMERIS_TYPE": 0, "CLASSIFICATION_TYPE": "U", "NORAD_CAT_ID": 59626, "ELEMENT_SET_NO": 999, "REV_AT_EPOCH": 8976, "BSTAR": 0.00018734775, "MEAN_MOTION_DOT": 3.586e-05, "MEAN_MOTION_DDOT": 0}, "tle": {"line1": "1 59626U 24081B   25349.93211936  .00003586  00000+0  18735-3 0  9998", "line2": "2 59626  97.5218  64.6307 0005621 280.0572  80.0027 15.16526622 89769"}}, "geometry": {"type": "Point", "coordinates": [66.12717397956101, -5.866265035103683]}}, {"type": "Feature", "properties": {"norad_id": 60182, "name": "ALOS-4 (DAICHI-4)", "group": "resource", "lat": -29.601970584653436, "lon": -99.08967850444589, "alt_km": 637.2939380062016, "timestamp": "2025-12-16T15:45:50.672452+00:00", "meta": {"OBJECT_NAME": "ALOS-4 (DAICHI-4)", "OBJECT_ID": "2024-123A", "EPOCH": "2025-12-16T00:12:36.469152", "MEAN_MOTION": 14.79474959, "ECCENTRICITY": 0.00014303, "INCLINATION": 97.9226, "RA_OF_ASC_NODE": 84.8093, "ARG_OF_PERICENTER": 100.3975, "MEAN_ANOMALY": 259.7397, "EPHEMERIS_TYPE": 0, "CLASSIFICATION_TYPE": "U", "NORAD_CAT_ID": 60182, "ELEMENT_SET_NO": 999, "REV_AT_EPOCH": 7879, "BSTAR": 0.00022000961, "MEAN_MOTION_DOT": 1.592e-05, "MEAN_MOTION_DDOT": 0}, "tle": {"line1": "1 60182U 24123A   25350.00875543  .00001592  00000+0  22001-3 0  9990", "line2": "2 60182  97.9226  84.8093 0001430 100.3975 259.7397 14.79474959 78791"}}, "geometry": {"type": "Point", "coordinates": [-99.08967850444589, -29.601970584653436]}}, {"type": "Feature", "properties": {"norad_id": 60452, "name": "LEGION 3", "group": "resource", "lat": 40.919920860072395, "lon": -10.714499831555091, "alt_km": 521.5655769396208, "timestamp": "2025-12-16T15:45:50.672464+00:00", "meta": {"OBJECT_NAME": "LEGION 3", "OBJECT_ID": "2024-146A", "EPOCH": "2025-12-15T20:29:06.193824", "MEAN_MOTION": 15.15797043, "ECCENTRICITY": 0.00152486, "INCLINATION": 45.0021, "RA_OF_ASC_NODE": 293.4392, "ARG_OF_PERICENTER": 215.5515, "MEAN_ANOMALY": 144.4348, "EPHEMERIS_TYPE": 0, "CLASSIFICATION_TYPE": "U", "NORAD_CAT_ID": 60452, "ELEMENT_SET_NO": 999, "REV_AT_EPOCH": 7420, "BSTAR": 0.0002341463, "MEAN_MOTION_DOT": 4.295e-05, "MEAN_MOTION_DDOT": 0}, "tle": {"line1": "1 60452U 24146A   25349.85354391  .00004295  00000+0  23415-3 0  9992", "line2": "2 60452  45.0021 293.4392 0015248 215.5515 144.4348 15.15797043 74200"}}, "geometry": {"type": "Point", "coordinates": [-10.714499831555091, 40.919920860072395]}}]}